[{"OBJECT_NAME":"STARLINK-2736","OBJECT_ID":"2021-044C","EPOCH":"2026-03-09T12:40:19.816896","MEAN_MOTION":15.30205471,"ECCENTRICITY":0.00013773,"INCLINATION":53.1613,"RA_OF_ASC_NODE":114.585,"ARG_OF_PERICENTER":87.0996,"MEAN_ANOMALY":273.0163,"EPHEMERIS_TYPE":0,"CLASSIFICATION_TYPE":"U","NORAD_CAT_ID":48640,"ELEMENT_SET_NO":999,"REV_AT_EPOCH":26379,"BSTAR":1.8777589e-5,"MEAN_MOTION_DOT":1.97e-6,"MEAN_MOTION_DDOT":0},{"OBJECT_NAME":"TOMORROW-S1","OBJECT_ID":"2024-149M","EPOCH":"2026-03-09T17:23:34.533600","MEAN_MOTION":15.31198363,"ECCENTRICITY":0.00018188,"INCLINATION":97.3791,"RA_OF_ASC_NODE":149.6044,"ARG_OF_PERICENTER":207.204,"MEAN_ANOMALY":152.9106,"EPHEMERIS_TYPE":0,"CLASSIFICATION_TYPE":"U","NORAD_CAT_ID":60479,"ELEMENT_SET_NO":999,"REV_AT_EPOCH":8686,"BSTAR":0.0002885603,"MEAN_MOTION_DOT":8.62e-5,"MEAN_MOTION_DDOT":0}]
